start=new Date('2023-05-14T00:00:00.000Z').valueOf();
sats=[{"DECAY_DATE":null,"EPOCH":"2023-05-13T19:28:25.250304","MEAN_MOTION":"15.69917603","OBJECT_TYPE":"PAYLOAD","BSTAR":"0.00000227610000","OBJECT_ID":"2023-037AW","COUNTRY_CODE":"US","SEMIMAJOR_AXIS":"6737.270","MEAN_MOTION_DOT":"0.00000061","REV_AT_EPOCH":"914","LAUNCH_DATE":"2023-03-17","ELEMENT_SET_NO":"999","TLE_LINE2":"2 55958  70.0030  20.6793 0003244 260.3791  99.7039 15.69917603  9140","CLASSIFICATION_TYPE":"U","OBJECT_NAME":"STARLINK-5928","TLE_LINE1":"1 55958U 23037AW  23133.81140336  .00000061  00000-0  22761-5 0  9995","TIME_SYSTEM":"UTC","NORAD_CAT_ID":"55958","MEAN_MOTION_DDOT":"0.0000000000000","SITE":"AFWTR","RA_OF_ASC_NODE":"20.6793","REF_FRAME":"TEME","MEAN_ANOMALY":"99.7039","ECCENTRICITY":"0.00032440","FILE":"3907148","RCS_SIZE":"LARGE","CENTER_NAME":"EARTH","PERIOD":"91.725","APOAPSIS":"361.320","INCLINATION":"70.0030","GP_ID":"231782755","MEAN_ELEMENT_THEORY":"SGP4","ARG_OF_PERICENTER":"260.3791","PERIAPSIS":"356.949","EPHEMERIS_TYPE":"0"},{"SEMIMAJOR_AXIS":"6737.252","MEAN_MOTION_DOT":"-0.00001238","LAUNCH_DATE":"2023-03-17","ELEMENT_SET_NO":"999","REV_AT_EPOCH":"914","TLE_LINE2":"2 55959  70.0017  20.6777 0003212 245.7162 114.3699 15.69923844  9142","CLASSIFICATION_TYPE":"U","DECAY_DATE":null,"EPOCH":"2023-05-13T19:28:15.812832","MEAN_MOTION":"15.69923844","OBJECT_TYPE":"PAYLOAD","BSTAR":"-0.00000852950000","OBJECT_ID":"2023-037AX","COUNTRY_CODE":"US","APOAPSIS":"361.281","INCLINATION":"70.0017","GP_ID":"231783014","MEAN_ELEMENT_THEORY":"SGP4","ARG_OF_PERICENTER":"245.7162","EPHEMERIS_TYPE":"0","PERIAPSIS":"356.953","OBJECT_NAME":"STARLINK-5929","TLE_LINE1":"1 55959U 23037AX  23133.81129413 -.00001238  00000-0 -85295-5 0  9999","TIME_SYSTEM":"UTC","NORAD_CAT_ID":"55959","SITE":"AFWTR","RA_OF_ASC_NODE":"20.6777","MEAN_MOTION_DDOT":"0.0000000000000","MEAN_ANOMALY":"114.3699","REF_FRAME":"TEME","ECCENTRICITY":"0.00032120","FILE":"3907148","RCS_SIZE":"LARGE","CENTER_NAME":"EARTH","PERIOD":"91.724"},{"TLE_LINE2":"2 55960  69.9997  20.6750 0003275 261.9088  98.1736 15.69918908  9141","CLASSIFICATION_TYPE":"U","LAUNCH_DATE":"2023-03-17","REV_AT_EPOCH":"914","ELEMENT_SET_NO":"999","SEMIMAJOR_AXIS":"6737.266","MEAN_MOTION_DOT":"-0.00000539","COUNTRY_CODE":"US","BSTAR":"-0.00000271610000","OBJECT_TYPE":"PAYLOAD","OBJECT_ID":"2023-037AY","EPOCH":"2023-05-13T19:27:12.808224","MEAN_MOTION":"15.69918908","DECAY_DATE":null,"PERIAPSIS":"356.925","EPHEMERIS_TYPE":"0","ARG_OF_PERICENTER":"261.9088","MEAN_ELEMENT_THEORY":"SGP4","APOAPSIS":"361.337","INCLINATION":"69.9997","GP_ID":"231783250","ECCENTRICITY":"0.00032750","RCS_SIZE":"LARGE","FILE":"3907148","CENTER_NAME":"EARTH","PERIOD":"91.724","RA_OF_ASC_NODE":"20.6750","SITE":"AFWTR","MEAN_MOTION_DDOT":"0.0000000000000","REF_FRAME":"TEME","MEAN_ANOMALY":"98.1736","TIME_SYSTEM":"UTC","NORAD_CAT_ID":"55960","OBJECT_NAME":"STARLINK-5938","TLE_LINE1":"1 55960U 23037AY  23133.81056491 -.00000539  00000-0 -27161-5 0  9997"},{"REF_FRAME":"TEME","MEAN_ANOMALY":"98.7758","SITE":"AFWTR","RA_OF_ASC_NODE":"20.6760","MEAN_MOTION_DDOT":"0.0000000000000","PERIOD":"91.725","CENTER_NAME":"EARTH","ECCENTRICITY":"0.00030270","RCS_SIZE":"LARGE","FILE":"3907148","TLE_LINE1":"1 55961U 23037AZ  23133.81087656 -.00000433  00000-0 -18354-5 0  9992","OBJECT_NAME":"STARLINK-5933","NORAD_CAT_ID":"55961","TIME_SYSTEM":"UTC","ARG_OF_PERICENTER":"261.3094","EPHEMERIS_TYPE":"0","PERIAPSIS":"357.094","APOAPSIS":"361.172","INCLINATION":"70.0026","GP_ID":"231781511","MEAN_ELEMENT_THEORY":"SGP4","OBJECT_ID":"2023-037AZ","BSTAR":"-0.00000183540000","OBJECT_TYPE":"PAYLOAD","COUNTRY_CODE":"US","DECAY_DATE":null,"MEAN_MOTION":"15.69918243","EPOCH":"2023-05-13T19:27:39.734784","TLE_LINE2":"2 55961  70.0026  20.6760 0003027 261.3094  98.7758 15.69918243  9147","CLASSIFICATION_TYPE":"U","MEAN_MOTION_DOT":"-0.00000433","SEMIMAJOR_AXIS":"6737.268","LAUNCH_DATE":"2023-03-17","ELEMENT_SET_NO":"999","REV_AT_EPOCH":"914"},{"DECAY_DATE":null,"MEAN_MOTION":"15.69924533","EPOCH":"2023-05-13T19:27:58.081824","OBJECT_ID":"2023-037BA","OBJECT_TYPE":"PAYLOAD","BSTAR":"-0.00001137900000","COUNTRY_CODE":"US","MEAN_MOTION_DOT":"-0.00001581","SEMIMAJOR_AXIS":"6737.250","LAUNCH_DATE":"2023-03-17","REV_AT_EPOCH":"914","ELEMENT_SET_NO":"999","TLE_LINE2":"2 55962  69.9999  20.6785 0003544 262.1105  97.9688 15.69924533  9149","CLASSIFICATION_TYPE":"U","TLE_LINE1":"1 55962U 23037BA  23133.81108891 -.00001581  00000-0 -11379-4 0  9992","OBJECT_NAME":"STARLINK-5906","NORAD_CAT_ID":"55962","TIME_SYSTEM":"UTC","MEAN_ANOMALY":"97.9688","REF_FRAME":"TEME","RA_OF_ASC_NODE":"20.6785","SITE":"AFWTR","MEAN_MOTION_DDOT":"0.0000000000000","PERIOD":"91.724","CENTER_NAME":"EARTH","ECCENTRICITY":"0.00035440","FILE":"3907148","RCS_SIZE":"LARGE","APOAPSIS":"361.503","INCLINATION":"69.9999","GP_ID":"231782255","MEAN_ELEMENT_THEORY":"SGP4","ARG_OF_PERICENTER":"262.1105","EPHEMERIS_TYPE":"0","PERIAPSIS":"356.727"},{"MEAN_MOTION":"15.69930224","EPOCH":"2023-05-13T19:28:06.327840","DECAY_DATE":null,"COUNTRY_CODE":"US","OBJECT_ID":"2023-037BB","OBJECT_TYPE":"PAYLOAD","BSTAR":"-0.00000164450000","LAUNCH_DATE":"2023-03-17","REV_AT_EPOCH":"914","ELEMENT_SET_NO":"999","MEAN_MOTION_DOT":"-0.00000410","SEMIMAJOR_AXIS":"6737.234","CLASSIFICATION_TYPE":"U","TLE_LINE2":"2 55963  70.0007  20.6763 0003341 264.4519  95.6296 15.69930224  9142","NORAD_CAT_ID":"55963","TIME_SYSTEM":"UTC","TLE_LINE1":"1 55963U 23037BB  23133.81118435 -.00000410  00000-0 -16445-5 0  9998","OBJECT_NAME":"STARLINK-5924","PERIOD":"91.724","CENTER_NAME":"EARTH","RCS_SIZE":"LARGE","FILE":"3907148","ECCENTRICITY":"0.00033410","REF_FRAME":"TEME","MEAN_ANOMALY":"95.6296","RA_OF_ASC_NODE":"20.6763","SITE":"AFWTR","MEAN_MOTION_DDOT":"0.0000000000000","MEAN_ELEMENT_THEORY":"SGP4","GP_ID":"231782514","INCLINATION":"70.0007","APOAPSIS":"361.350","EPHEMERIS_TYPE":"0","PERIAPSIS":"356.848","ARG_OF_PERICENTER":"264.4519"},{"CLASSIFICATION_TYPE":"U","TLE_LINE2":"2 55964  70.0026  20.6818 0003392 258.4580 101.6235 15.69920639  9142","SEMIMAJOR_AXIS":"6737.261","MEAN_MOTION_DOT":"-0.00000891","ELEMENT_SET_NO":"999","LAUNCH_DATE":"2023-03-17","REV_AT_EPOCH":"914","BSTAR":"-0.00000564700000","OBJECT_TYPE":"PAYLOAD","OBJECT_ID":"2023-037BC","COUNTRY_CODE":"US","DECAY_DATE":null,"EPOCH":"2023-05-13T19:29:01.546944","MEAN_MOTION":"15.69920639","ARG_OF_PERICENTER":"258.4580","EPHEMERIS_TYPE":"0","PERIAPSIS":"356.841","INCLINATION":"70.0026","GP_ID":"231782750","APOAPSIS":"361.411","MEAN_ELEMENT_THEORY":"SGP4","RA_OF_ASC_NODE":"20.6818","SITE":"AFWTR","MEAN_MOTION_DDOT":"0.0000000000000","REF_FRAME":"TEME","MEAN_ANOMALY":"101.6235","RCS_SIZE":"LARGE","FILE":"3907148","ECCENTRICITY":"0.00033920","CENTER_NAME":"EARTH","PERIOD":"91.724","OBJECT_NAME":"STARLINK-5895","TLE_LINE1":"1 55964U 23037BC  23133.81182346 -.00000891  00000-0 -56470-5 0  9996","TIME_SYSTEM":"UTC","NORAD_CAT_ID":"55964"},{"SEMIMAJOR_AXIS":"6737.244","MEAN_MOTION_DOT":"0.00006344","LAUNCH_DATE":"2023-03-17","REV_AT_EPOCH":"914","ELEMENT_SET_NO":"999","TLE_LINE2":"2 55965  70.0027  20.6778 0003436 247.5241 112.5591 15.69926484  9141","CLASSIFICATION_TYPE":"U","DECAY_DATE":null,"EPOCH":"2023-05-13T19:27:21.303072","MEAN_MOTION":"15.69926484","OBJECT_TYPE":"PAYLOAD","BSTAR":"0.00005448100000","OBJECT_ID":"2023-037BD","COUNTRY_CODE":"US","APOAPSIS":"361.424","INCLINATION":"70.0027","GP_ID":"231782012","MEAN_ELEMENT_THEORY":"SGP4","ARG_OF_PERICENTER":"247.5241","PERIAPSIS":"356.794","EPHEMERIS_TYPE":"0","OBJECT_NAME":"STARLINK-5894","TLE_LINE1":"1 55965U 23037BD  23133.81066323  .00006344  00000-0  54481-4 0  9999","TIME_SYSTEM":"UTC","NORAD_CAT_ID":"55965","RA_OF_ASC_NODE":"20.6778","SITE":"AFWTR","MEAN_MOTION_DDOT":"0.0000000000000","REF_FRAME":"TEME","MEAN_ANOMALY":"112.5591","ECCENTRICITY":"0.00034360","RCS_SIZE":"LARGE","FILE":"3907148","CENTER_NAME":"EARTH","PERIOD":"91.724"},{"OBJECT_TYPE":"PAYLOAD","BSTAR":"-0.04698500000000","OBJECT_ID":"2023-042A","COUNTRY_CODE":"US","DECAY_DATE":null,"EPOCH":"2023-05-13T22:00:00.999936","MEAN_MOTION":"15.20421969","CLASSIFICATION_TYPE":"U","TLE_LINE2":"2 55986  42.9986 258.7501 0001480 283.6422 136.9764 15.20421969  8172","SEMIMAJOR_AXIS":"6882.704","MEAN_MOTION_DOT":"-0.00963674","ELEMENT_SET_NO":"999","LAUNCH_DATE":"2023-03-24","REV_AT_EPOCH":"817","SITE":"AFETR","RA_OF_ASC_NODE":"258.7501","MEAN_MOTION_DDOT":"0.0000000000000","REF_FRAME":"TEME","MEAN_ANOMALY":"136.9764","FILE":"3906963","RCS_SIZE":"LARGE","ECCENTRICITY":"0.00014800","CENTER_NAME":"EARTH","PERIOD":"94.711","OBJECT_NAME":"STARLINK-5905","TLE_LINE1":"1 55986U 23042A   23133.91667824 -.00963674  00000-0 -46985-1 0  9999","TIME_SYSTEM":"UTC","NORAD_CAT_ID":"55986","ARG_OF_PERICENTER":"283.6422","PERIAPSIS":"503.550","EPHEMERIS_TYPE":"0","GP_ID":"231752294","INCLINATION":"42.9986","APOAPSIS":"505.588","MEAN_ELEMENT_THEORY":"SGP4"},{"RA_OF_ASC_NODE":"258.5700","SITE":"AFETR","MEAN_MOTION_DDOT":"0.0000000000000","REF_FRAME":"TEME","MEAN_ANOMALY":"208.8840","ECCENTRICITY":"0.00013890","RCS_SIZE":"LARGE","FILE":"3906952","PERIOD":"94.627","CENTER_NAME":"EARTH","OBJECT_NAME":"STARLINK-5915","TLE_LINE1":"1 55987U 23042B   23133.91667824 -.00962843  00000-0 -45118-1 0  9994","TIME_SYSTEM":"UTC","NORAD_CAT_ID":"55987","ARG_OF_PERICENTER":"286.9556","PERIAPSIS":"499.567","EPHEMERIS_TYPE":"0","APOAPSIS":"501.477","INCLINATION":"42.9997","GP_ID":"231752172","MEAN_ELEMENT_THEORY":"SGP4","BSTAR":"-0.04511800000000","OBJECT_TYPE":"PAYLOAD","OBJECT_ID":"2023-042B","COUNTRY_CODE":"US","DECAY_DATE":null,"EPOCH":"2023-05-13T22:00:00.999936","MEAN_MOTION":"15.21763904","TLE_LINE2":"2 55987  42.9997 258.5700 0001389 286.9556 208.8840 15.21763904  8180","CLASSIFICATION_TYPE":"U","SEMIMAJOR_AXIS":"6878.657","MEAN_MOTION_DOT":"-0.00962843","ELEMENT_SET_NO":"999","LAUNCH_DATE":"2023-03-24","REV_AT_EPOCH":"818"}];
